{"fetched_at": "2026-06-04T18:22:40.349187+00:00", "line1": "1 55841U 23031A   26154.72656752  .00000045  00000+0  00000+0 0  9997", "line2": "2 55841   0.0239  54.9081 0000780 159.5695   1.2300  1.00270312 11803"}
{"fetched_at": "2026-06-22T01:53:06.957926+00:00", "line1": "1 55841U 23031A   26171.19039038  .00000028  00000+0  00000+0 0  9990", "line2": "2 55841   0.0319  70.1111 0000849 132.8971 195.9281  1.00272356 11969"}
{"fetched_at": "2026-06-24T08:25:59.699994+00:00", "line1": "1 55841U 23031A   26173.68559117  .00000036  00000+0  00000+0 0  9990", "line2": "2 55841   0.0358  74.9255 0000950 138.2854   6.4597  1.00270749 11999"}
{"fetched_at": "2026-06-24T08:26:28.915924+00:00", "line1": "1 55841U 23031A   26171.19039038  .00000028  00000+0  00000+0 0  9990", "line2": "2 55841   0.0319  70.1111 0000849 132.8971 195.9281  1.00272356 11969"}
